OBJECT_NAME,OBJECT_ID,EPOCH,MEAN_MOTION,ECCENTRICITY,INCLINATION,RA_OF_ASC_NODE,ARG_OF_PERICENTER,MEAN_ANOMALY,EPHEMERIS_TYPE,CLASSIFICATION_TYPE,NORAD_CAT_ID,ELEMENT_SET_NO,REV_AT_EPOCH,BSTAR,MEAN_MOTION_DOT,MEAN_MOTION_DDOT
TIANMU-1 21,2023-208C,2026-06-09T11:45:57.144672,15.34939919,.0006568,97.4492,280.0269,355.6604,4.4581,0,U,58662,999,13638,.25514E-3,.8571E-4,0
TIANMU-1 22,2023-208D,2026-06-09T13:21:20.865600,15.30950874,.0003936,97.4487,276.7610,30.4481,329.6988,0,U,58663,999,13616,.22512E-3,.6655E-4,0
TIANMU-1 15,2024-004A,2026-06-09T11:55:48.582912,15.26943810,.0007468,97.4673,346.6868,28.2442,331.9200,0,U,58700,999,13460,.18858E-3,.4917E-4,0
TIANMU-1 16,2024-004B,2026-06-09T13:12:41.921280,15.26669690,.0006583,97.4619,345.9857,32.9315,327.2333,0,U,58701,999,13461,.18984E-3,.4908E-4,0
TIANMU-1 17,2024-004C,2026-06-09T12:51:44.792640,15.26669215,.000626,97.4647,346.4532,38.8099,321.3589,0,U,58702,999,13460,.19268E-3,.4983E-4,0
TIANMU-1 18,2024-004D,2026-06-09T12:19:36.373152,15.26927757,.0004751,97.4665,346.6816,38.3909,321.7667,0,U,58703,999,13460,.18988E-3,.4947E-4,0
INSAT-3DS,2024-033A,2026-06-09T12:01:03.852192,1.00272814,.0001204,0.0039,105.7665,327.6742,86.7876,0,U,58990,999,4699,0,-.139E-5,0
METEOR-M2 4,2024-039A,2026-06-09T12:23:15.258912,14.22428804,.0006832,98.7007,119.9107,182.8444,177.2696,0,U,59051,999,11817,.23879E-4,.9E-7,0
GOES 19,2024-119A,2026-06-09T09:33:27.904032,1.00271943,.0000466,0.0371,156.7989,350.6695,178.4881,0,U,60133,999,688,0,-.231E-5,0
MTG-S1,2025-143A,2026-06-09T08:11:16.287072,1.00271609,.0001016,0.6103,337.1481,26.2648,13.6462,0,U,64723,999,334,0,-.15E-6,0
METOP-SGA1,2025-172A,2026-06-09T09:30:25.193088,14.21508511,.000093,98.6646,220.2659,88.2928,271.8356,0,U,65159,999,4268,.34203E-4,.31E-6,0
FENGYUN 3H,2025-219A,2026-06-09T10:20:12.633792,14.19919135,.0001636,98.6766,101.3507,82.8198,277.3164,0,U,65815,999,3628,.43769E-4,.5E-6,0
