TIANMU-1 21             
1 58662U 23208C   26160.49024473  .00008571  00000+0  25514-3 0  9990
2 58662  97.4492 280.0269 0006568 355.6604   4.4581 15.34939919136381
TIANMU-1 22             
1 58663U 23208D   26160.55649150  .00006655  00000+0  22512-3 0  9999
2 58663  97.4487 276.7610 0003936  30.4481 329.6988 15.30950874136163
TIANMU-1 15             
1 58700U 24004A   26160.49709008  .00004917  00000+0  18858-3 0  9995
2 58700  97.4673 346.6868 0007468  28.2442 331.9200 15.26943810134607
TIANMU-1 16             
1 58701U 24004B   26160.55048520  .00004908  00000+0  18984-3 0  9998
2 58701  97.4619 345.9857 0006583  32.9315 327.2333 15.26669690134613
TIANMU-1 17             
1 58702U 24004C   26160.53593510  .00004983  00000+0  19268-3 0  9990
2 58702  97.4647 346.4532 0006260  38.8099 321.3589 15.26669215134607
TIANMU-1 18             
1 58703U 24004D   26160.51361543  .00004947  00000+0  18988-3 0  9996
2 58703  97.4665 346.6816 0004751  38.3909 321.7667 15.26927757134602
INSAT-3DS               
1 58990U 24033A   26160.50073903 -.00000139  00000+0  00000+0 0  9997
2 58990   0.0039 105.7665 0001204 327.6742  86.7876  1.00272814 46998
METEOR-M2 4             
1 59051U 24039A   26160.51614883  .00000009  00000+0  23879-4 0  9990
2 59051  98.7007 119.9107 0006832 182.8444 177.2696 14.22428804118172
GOES 19                 
1 60133U 24119A   26160.39823963 -.00000231  00000+0  00000+0 0  9993
2 60133   0.0371 156.7989 0000466 350.6695 178.4881  1.00271943  6887
MTG-S1                  
1 64723U 25143A   26160.34116073 -.00000015  00000+0  00000+0 0  9992
2 64723   0.6103 337.1481 0001016  26.2648  13.6462  1.00271609  3345
METOP-SGA1              
1 65159U 25172A   26160.39612492  .00000031  00000+0  34203-4 0  9993
2 65159  98.6646 220.2659 0000930  88.2928 271.8356 14.21508511 42682
FENGYUN 3H              
1 65815U 25219A   26160.43070178  .00000050  00000+0  43769-4 0  9996
2 65815  98.6766 101.3507 0001636  82.8198 277.3164 14.19919135 36280
